#aV2012  8 20  0  0  0.00000000     288 DD+AD WGS84 FIT  NGA
## 1702  86400.00000000   300.00000000 56159 0.0000000000000
+   31     1  2  3  4  5  6  7  8  9 10 11 12 13 14 15 16 17
+         18 19 20 21 22 23 25 26 27 28 29 30 31 32  0  0  0
+          0  0  0  0  0  0  0  0  0  0  0  0  0  0  0  0  0
+          0  0  0  0  0  0  0  0  0  0  0  0  0  0  0  0  0
+          0  0  0  0  0  0  0  0  0  0  0  0  0  0  0  0  0
++         2  2  2  2  2  2  2  2  2  2  2  2  2  2  2  2  2
++         2  2  2  2  2  2  2  2  2  2  2  2  2  2  2  0  0
++         0  0  0  0  0  0  0  0  0  0  0  0  0  0  0  0  0
++         0  0  0  0  0  0  0  0  0  0  0  0  0  0  0  0  0
++         0  0  0  0  0  0  0  0  0  0  0  0  0  0  0  0  0
%c cc cc ccc ccc cccc cccc cccc cccc ccccc ccccc ccccc ccccc
%c cc cc ccc ccc cccc cccc cccc cccc ccccc ccccc ccccc ccccc
%f  0.0000000  0.000000000  0.00000000000  0.000000000000000
%f  0.0000000  0.000000000  0.00000000000  0.000000000000000
%i    0    0    0    0      0      0      0      0         0
%i    0    0    0    0      0      0      0      0         0
/*      NGA, ST. LOUIS,MO.                                  
/*   EPHEMERIS COMPUTED FROM  1 DAYS OF DATA
/*   EPOCHA SMOOTHER  
/* CCCCCCCCCCCCCCCCCCCCCCCCCCCCCCCCCCCCCCCCCCCCCCCCCCCCCCCCC
*  2012  8 20  4 20  0.00000000                                                 
P  1 -11586.976340  21225.365202 -10939.501488    270.315131                    
V  1 -11863.773868   7643.538378  27471.835081      0.015108                    
P  2  21728.095994 -11545.748690  -9172.749440    400.401495                    
V  2  -6196.285535  10938.423778 -28513.037469      0.011155                    
P  3 -13423.271500   8308.520455  20851.417187     90.538644                    
V  3 -10305.833682 -25779.228115   3813.278438      0.049301                    
P  4  19239.211229    831.360029 -18676.367312    279.497992                    
V  4 -15926.350055  16878.588023 -15565.836798      0.113245                    
P  5  22003.988619  -3999.669685  14411.208692   -345.078323                    
V  5  16821.356867   7565.464068 -23422.659571     -0.032054                    
P  6 -15625.392945   2502.950071  21453.713201    -12.488948                    
V  6  -7421.685844 -26020.020982  -2065.525162     -0.073551                    
P  7   1357.881735  17123.927569  20203.345877    112.792149                    
V  7 -19801.389052  16313.774223 -12783.474176      0.040347                    
P  8  13486.841558   7436.038344  21807.193556      2.041486                    
V  8 -21758.711722  16495.618360   7288.458530      0.001258                    
P  9  14742.840106 -20930.931938  -7733.340221    179.884819                    
V  9   7793.336155  -4899.081761  30237.156984      0.025535                    
P 10  25017.361785   9474.984727  -1549.689839    -48.800426                    
V 10  -2489.847737   2289.760326 -31056.107666     -0.013030                    
P 11 -11732.481371  23531.263819  -2685.190781   -294.006527                    
V 11  -6065.966496   -141.917124  30008.544045     -0.039144                    
P 12   5330.646487 -13806.024132 -22069.537558     86.381438                    
V 12  26403.598342   9090.049779    876.920297      0.020379                    
P 13   5234.281811  25805.324792   2842.906029    186.803293                    
V 13  -1639.937463   4024.031825 -32085.476020     -0.025410                    
P 14 -13715.057222 -15514.494807 -16529.602221    210.498028                    
V 14  -1845.004215 -21222.159144  21058.160751      0.010571                    
P 15   6307.136087 -20595.933314  15388.723620    -93.993040                    
V 15   7200.091334  18487.726291  21999.939605     -0.005590                    
P 16 -22140.693179   2486.478921  14690.457502   -244.133773                    
V 16 -16930.891495  -7584.973926 -23917.686340     -0.009015                    
P 17  14214.947659  15785.009019 -15912.002926    103.587482                    
V 17   2039.145644  20410.877945  21587.854131     -0.031705                    
P 18 -14830.002336 -16591.007098  15139.517427    210.932113                    
V 18  18363.682340   3347.179874  21853.298557      0.018101                    
P 19  -9253.326517  18288.895551  16602.340708   -295.986647                    
V 19  -4890.806102 -20900.174847  20613.515627     -0.035694                    
P 20  -1690.467999  15995.929282 -21296.885573     66.579662                    
V 20 -26016.425620  -6444.003018  -2725.798623      0.006864                    
P 21  -5743.835400 -15840.252690  20934.326094   -244.314253                    
V 21  19666.584567 -16531.284776  -7864.553963     -0.024574                    
P 22 -24361.612951 -10333.129413   3176.727481    146.773951                    
V 22   4771.279214  -2384.993436  30544.996047      0.006247                    
P 23  -1160.171285  24753.483133  -8950.337771    173.252090                    
V 23  -5275.444157 -10695.703468 -29115.204674     -0.039357                    
P 25  -9267.144249 -16304.668246 -18873.546178     40.225162                    
V 25  23187.642609   5650.934814 -16241.263362      0.010725                    
P 26  12903.473025  -8583.828347  20889.830537   -308.991037                    
V 26   4574.645222  27633.360897   8631.412554      0.125401                    
P 27  17694.607951 -19270.351767  -1787.688588    422.091620                    
V 27   3994.331284   -286.046322  32474.723669      0.041941                    
P 28  22527.918961  12955.513055   6565.472469    176.994783                    
V 28  -7720.883389   -852.404208  30596.607659      0.038651                    
P 29  -3698.862824 -26286.996512  -1431.714871    346.199091                    
V 29   2958.837766   1380.806619 -31730.240346      0.042902                    
P 30 -26071.119691  -2377.966428   4070.303954   -374.439133                    
V 30  -4947.215031  -3895.710267 -31197.921259     -0.242728                    
P 31 -19851.054060   2018.302889 -17465.726628    268.745926                    
V 31  15922.944046 -15812.399708 -19476.734640      0.025883                    
P 32 -11502.667873  11344.833568 -20798.234725   -478.595199                    
V 32 -24604.122713 -11168.503452   7927.498265     -0.042953                    
EOF
